! Propagated orbits
format  = 'OEF2.0'       ! file format
rectype = 'ML'           ! record type (1L/ML)
refsys  = ECLM J2000     ! default reference system
END_OF_HEADER
! Orbital elements of object K21E00A (Gauss(wN))
K21E00A
! Keplerian elements: a, e, i, long. node, arg. peric., mean anomaly
 KEP   1.2989984390232820E+00 0.237563404272872   3.0006189587041 139.1486265719337 316.7163361462099  42.4810617056960
 MJD     59274.381182641 TDT
 MAG   0.000  0.000
! Non-grav parameters: model used, actual number in use, dimension
 LSP   0  0    6
! RMS    2.63690-155   2.15639-155   0.00000E+00   1.50627-153   4.02731-159   0.00000E+00
! EIG  -1.00434+121  -2.84692-155  -1.50836-156   2.18413-155   4.14992-155   1.00434+121
! WEA   0.00000   0.70711   0.00000   0.00000   0.00000   0.70711
 COV   6.953229220668007-310  6.953229220668007-310  4.530581972364231-321
 COV   0.000000000000000E+00  1.877067047386856-317  6.338125239901489-314
 COV   4.650009088590742-310  5.681754927174335-322  3.112613568799853-321
 COV   6.458781390220730-315  3.959894121417771-308  0.000000000000000E+00
 COV   2.282610503839512-306  1.613618399317511-320  2.268852204484994-306
 COV   2.268852182215943-306  6.966101311133269-308  2.268852180631682-306
 COV   1.621928089414915-317  3.631478262714833-312  0.000000000000000E+00
 NOR   2.121997814658158-314  4.650032453887930-310  8.115837663565518-312
 NOR   1.213567435459613-311  0.000000000000000E+00  0.000000000000000E+00
 NOR   1.778636325028488-322  0.000000000000000E+00  8.115796884231963-312
 NOR   1.778636325028488-322  0.000000000000000E+00  2.118074744351256-313
 NOR   2.118074744351256-313  0.000000000000000E+00  0.000000000000000E+00
 NOR   1.416473753010559-313  0.000000000000000E+00  0.000000000000000E+00
 NOR   0.000000000000000E+00  0.000000000000000E+00  0.000000000000000E+00
